KUIPER-00125            
1 65954U 25228H   25345.27790891  .00115523  00000+0  31598-2 0  9994
2 65954  51.8796  27.5037 0005946  10.7922 349.3191 15.36448842 10192
KUIPER-00126            
1 65955U 25228J   25345.33335648 -.00436602  00000+0 -40630-1 0  9999
2 65955  51.8964  32.0799 0006029  24.8212 337.6090 14.95929391  5882
KUIPER-00127            
1 65956U 25228K   25345.33335648 -.00003634  00000+0 -23191-3 0  9990
2 65956  51.8945  30.3659 0005397  47.1613 196.9900 15.05277207  4551
KUIPER-00128            
1 65957U 25228L   25345.33335648 -.00855010  00000+0 -40265-1 0  9993
2 65957  51.8831  28.1361 0003600  15.0240 181.2862 15.21886687  5579
KUIPER-00129            
1 65958U 25228M   25345.27463937  .00087513  00000+0  24241-2 0  9990
2 65958  51.8800  27.4912 0006318 357.0036   3.0912 15.36201254 10199
KUIPER-00130            
1 65959U 25228N   25345.11959270  .00033907  00000+0  11532-2 0  9991
2 65959  51.8809  28.6901 0007057  23.0416 337.0883 15.30112280 10161
KUIPER-00134            
1 65960U 25228P   25343.85946475  .00067531  00000+0  19137-2 0  9994
2 65960  51.8788  34.4917 0007242   6.6400 353.4681 15.35607067  9979
KUIPER-00135            
1 65961U 25228Q   25345.26248536  .00064649  00000+0  22772-2 0  9991
2 65961  51.8829  28.1204 0008289 349.9084  10.1731 15.28664020 10180
