<?xml version="1.0" encoding="UTF-8"?>
<ndm xmlns:xsi="http://www.w3.org/2001/XMLSchema-instance" xsi:noNamespaceSchemaLocation="https://sanaregistry.org/r/ndmxml_unqualified/ndmxml-2.0.0-master-2.0.xsd">
<omm id="CCSDS_OMM_VERS" version="2.0">
<header><CREATION_DATE/><ORIGINATOR/></header><body><segment><metadata><OBJECT_NAME>KUIPER-00125</OBJECT_NAME><OBJECT_ID>2025-228H</OBJECT_ID><CENTER_NAME>EARTH</CENTER_NAME><REF_FRAME>TEME</REF_FRAME><TIME_SYSTEM>UTC</TIME_SYSTEM><MEAN_ELEMENT_THEORY>SGP4</MEAN_ELEMENT_THEORY></metadata><data><meanElements><EPOCH>2025-12-11T06:40:11.329824</EPOCH><MEAN_MOTION>15.36448842</MEAN_MOTION><ECCENTRICITY>.00059469</ECCENTRICITY><INCLINATION>51.8796</INCLINATION><RA_OF_ASC_NODE>27.5037</RA_OF_ASC_NODE><ARG_OF_PERICENTER>10.7922</ARG_OF_PERICENTER><MEAN_ANOMALY>349.3191</MEAN_ANOMALY></meanElements><tleParameters><EPHEMERIS_TYPE>0</EPHEMERIS_TYPE><CLASSIFICATION_TYPE>U</CLASSIFICATION_TYPE><NORAD_CAT_ID>65954</NORAD_CAT_ID><ELEMENT_SET_NO>999</ELEMENT_SET_NO><REV_AT_EPOCH>1019</REV_AT_EPOCH><BSTAR>.31598342E-2</BSTAR><MEAN_MOTION_DOT>.115523E-2</MEAN_MOTION_DOT><MEAN_MOTION_DDOT>0</MEAN_MOTION_DDOT></tleParameters></data></segment></body></omm>
<omm id="CCSDS_OMM_VERS" version="2.0">
<header><CREATION_DATE/><ORIGINATOR/></header><body><segment><metadata><OBJECT_NAME>KUIPER-00126</OBJECT_NAME><OBJECT_ID>2025-228J</OBJECT_ID><CENTER_NAME>EARTH</CENTER_NAME><REF_FRAME>TEME</REF_FRAME><TIME_SYSTEM>UTC</TIME_SYSTEM><MEAN_ELEMENT_THEORY>SGP4</MEAN_ELEMENT_THEORY></metadata><data><meanElements><EPOCH>2025-12-11T08:00:01.999872</EPOCH><MEAN_MOTION>14.95929391</MEAN_MOTION><ECCENTRICITY>.00060291</ECCENTRICITY><INCLINATION>51.8964</INCLINATION><RA_OF_ASC_NODE>32.0799</RA_OF_ASC_NODE><ARG_OF_PERICENTER>24.8212</ARG_OF_PERICENTER><MEAN_ANOMALY>337.6090</MEAN_ANOMALY></meanElements><tleParameters><EPHEMERIS_TYPE>0</EPHEMERIS_TYPE><CLASSIFICATION_TYPE>U</CLASSIFICATION_TYPE><NORAD_CAT_ID>65955</NORAD_CAT_ID><ELEMENT_SET_NO>999</ELEMENT_SET_NO><REV_AT_EPOCH>588</REV_AT_EPOCH><BSTAR>-.40630187E-1</BSTAR><MEAN_MOTION_DOT>-.436602E-2</MEAN_MOTION_DOT><MEAN_MOTION_DDOT>0</MEAN_MOTION_DDOT></tleParameters></data></segment></body></omm>
<omm id="CCSDS_OMM_VERS" version="2.0">
<header><CREATION_DATE/><ORIGINATOR/></header><body><segment><metadata><OBJECT_NAME>KUIPER-00127</OBJECT_NAME><OBJECT_ID>2025-228K</OBJECT_ID><CENTER_NAME>EARTH</CENTER_NAME><REF_FRAME>TEME</REF_FRAME><TIME_SYSTEM>UTC</TIME_SYSTEM><MEAN_ELEMENT_THEORY>SGP4</MEAN_ELEMENT_THEORY></metadata><data><meanElements><EPOCH>2025-12-11T08:00:01.999872</EPOCH><MEAN_MOTION>15.05277207</MEAN_MOTION><ECCENTRICITY>.00053971</ECCENTRICITY><INCLINATION>51.8945</INCLINATION><RA_OF_ASC_NODE>30.3659</RA_OF_ASC_NODE><ARG_OF_PERICENTER>47.1613</ARG_OF_PERICENTER><MEAN_ANOMALY>196.9900</MEAN_ANOMALY></meanElements><tleParameters><EPHEMERIS_TYPE>0</EPHEMERIS_TYPE><CLASSIFICATION_TYPE>U</CLASSIFICATION_TYPE><NORAD_CAT_ID>65956</NORAD_CAT_ID><ELEMENT_SET_NO>999</ELEMENT_SET_NO><REV_AT_EPOCH>455</REV_AT_EPOCH><BSTAR>-.23191335E-3</BSTAR><MEAN_MOTION_DOT>-.3634E-4</MEAN_MOTION_DOT><MEAN_MOTION_DDOT>0</MEAN_MOTION_DDOT></tleParameters></data></segment></body></omm>
<omm id="CCSDS_OMM_VERS" version="2.0">
<header><CREATION_DATE/><ORIGINATOR/></header><body><segment><metadata><OBJECT_NAME>KUIPER-00128</OBJECT_NAME><OBJECT_ID>2025-228L</OBJECT_ID><CENTER_NAME>EARTH</CENTER_NAME><REF_FRAME>TEME</REF_FRAME><TIME_SYSTEM>UTC</TIME_SYSTEM><MEAN_ELEMENT_THEORY>SGP4</MEAN_ELEMENT_THEORY></metadata><data><meanElements><EPOCH>2025-12-11T08:00:01.999872</EPOCH><MEAN_MOTION>15.21886687</MEAN_MOTION><ECCENTRICITY>.00036006</ECCENTRICITY><INCLINATION>51.8831</INCLINATION><RA_OF_ASC_NODE>28.1361</RA_OF_ASC_NODE><ARG_OF_PERICENTER>15.0240</ARG_OF_PERICENTER><MEAN_ANOMALY>181.2862</MEAN_ANOMALY></meanElements><tleParameters><EPHEMERIS_TYPE>0</EPHEMERIS_TYPE><CLASSIFICATION_TYPE>U</CLASSIFICATION_TYPE><NORAD_CAT_ID>65957</NORAD_CAT_ID><ELEMENT_SET_NO>999</ELEMENT_SET_NO><REV_AT_EPOCH>557</REV_AT_EPOCH><BSTAR>-.40264781E-1</BSTAR><MEAN_MOTION_DOT>-.85501E-2</MEAN_MOTION_DOT><MEAN_MOTION_DDOT>0</MEAN_MOTION_DDOT></tleParameters></data></segment></body></omm>
<omm id="CCSDS_OMM_VERS" version="2.0">
<header><CREATION_DATE/><ORIGINATOR/></header><body><segment><metadata><OBJECT_NAME>KUIPER-00129</OBJECT_NAME><OBJECT_ID>2025-228M</OBJECT_ID><CENTER_NAME>EARTH</CENTER_NAME><REF_FRAME>TEME</REF_FRAME><TIME_SYSTEM>UTC</TIME_SYSTEM><MEAN_ELEMENT_THEORY>SGP4</MEAN_ELEMENT_THEORY></metadata><data><meanElements><EPOCH>2025-12-11T06:35:28.841568</EPOCH><MEAN_MOTION>15.36201254</MEAN_MOTION><ECCENTRICITY>.00063182</ECCENTRICITY><INCLINATION>51.8800</INCLINATION><RA_OF_ASC_NODE>27.4912</RA_OF_ASC_NODE><ARG_OF_PERICENTER>357.0036</ARG_OF_PERICENTER><MEAN_ANOMALY>3.0912</MEAN_ANOMALY></meanElements><tleParameters><EPHEMERIS_TYPE>0</EPHEMERIS_TYPE><CLASSIFICATION_TYPE>U</CLASSIFICATION_TYPE><NORAD_CAT_ID>65958</NORAD_CAT_ID><ELEMENT_SET_NO>999</ELEMENT_SET_NO><REV_AT_EPOCH>1019</REV_AT_EPOCH><BSTAR>.24241489E-2</BSTAR><MEAN_MOTION_DOT>.87513E-3</MEAN_MOTION_DOT><MEAN_MOTION_DDOT>0</MEAN_MOTION_DDOT></tleParameters></data></segment></body></omm>
<omm id="CCSDS_OMM_VERS" version="2.0">
<header><CREATION_DATE/><ORIGINATOR/></header><body><segment><metadata><OBJECT_NAME>KUIPER-00130</OBJECT_NAME><OBJECT_ID>2025-228N</OBJECT_ID><CENTER_NAME>EARTH</CENTER_NAME><REF_FRAME>TEME</REF_FRAME><TIME_SYSTEM>UTC</TIME_SYSTEM><MEAN_ELEMENT_THEORY>SGP4</MEAN_ELEMENT_THEORY></metadata><data><meanElements><EPOCH>2025-12-11T02:52:12.809280</EPOCH><MEAN_MOTION>15.30112280</MEAN_MOTION><ECCENTRICITY>.0007057</ECCENTRICITY><INCLINATION>51.8809</INCLINATION><RA_OF_ASC_NODE>28.6901</RA_OF_ASC_NODE><ARG_OF_PERICENTER>23.0416</ARG_OF_PERICENTER><MEAN_ANOMALY>337.0883</MEAN_ANOMALY></meanElements><tleParameters><EPHEMERIS_TYPE>0</EPHEMERIS_TYPE><CLASSIFICATION_TYPE>U</CLASSIFICATION_TYPE><NORAD_CAT_ID>65959</NORAD_CAT_ID><ELEMENT_SET_NO>999</ELEMENT_SET_NO><REV_AT_EPOCH>1016</REV_AT_EPOCH><BSTAR>.11531643E-2</BSTAR><MEAN_MOTION_DOT>.33907E-3</MEAN_MOTION_DOT><MEAN_MOTION_DDOT>0</MEAN_MOTION_DDOT></tleParameters></data></segment></body></omm>
<omm id="CCSDS_OMM_VERS" version="2.0">
<header><CREATION_DATE/><ORIGINATOR/></header><body><segment><metadata><OBJECT_NAME>KUIPER-00134</OBJECT_NAME><OBJECT_ID>2025-228P</OBJECT_ID><CENTER_NAME>EARTH</CENTER_NAME><REF_FRAME>TEME</REF_FRAME><TIME_SYSTEM>UTC</TIME_SYSTEM><MEAN_ELEMENT_THEORY>SGP4</MEAN_ELEMENT_THEORY></metadata><data><meanElements><EPOCH>2025-12-09T20:37:37.754400</EPOCH><MEAN_MOTION>15.35607067</MEAN_MOTION><ECCENTRICITY>.00072429</ECCENTRICITY><INCLINATION>51.8788</INCLINATION><RA_OF_ASC_NODE>34.4917</RA_OF_ASC_NODE><ARG_OF_PERICENTER>6.6400</ARG_OF_PERICENTER><MEAN_ANOMALY>353.4681</MEAN_ANOMALY></meanElements><tleParameters><EPHEMERIS_TYPE>0</EPHEMERIS_TYPE><CLASSIFICATION_TYPE>U</CLASSIFICATION_TYPE><NORAD_CAT_ID>65960</NORAD_CAT_ID><ELEMENT_SET_NO>999</ELEMENT_SET_NO><REV_AT_EPOCH>997</REV_AT_EPOCH><BSTAR>.1913741E-2</BSTAR><MEAN_MOTION_DOT>.67531E-3</MEAN_MOTION_DOT><MEAN_MOTION_DDOT>0</MEAN_MOTION_DDOT></tleParameters></data></segment></body></omm>
<omm id="CCSDS_OMM_VERS" version="2.0">
<header><CREATION_DATE/><ORIGINATOR/></header><body><segment><metadata><OBJECT_NAME>KUIPER-00135</OBJECT_NAME><OBJECT_ID>2025-228Q</OBJECT_ID><CENTER_NAME>EARTH</CENTER_NAME><REF_FRAME>TEME</REF_FRAME><TIME_SYSTEM>UTC</TIME_SYSTEM><MEAN_ELEMENT_THEORY>SGP4</MEAN_ELEMENT_THEORY></metadata><data><meanElements><EPOCH>2025-12-11T06:17:58.735104</EPOCH><MEAN_MOTION>15.28664020</MEAN_MOTION><ECCENTRICITY>.00082893</ECCENTRICITY><INCLINATION>51.8829</INCLINATION><RA_OF_ASC_NODE>28.1204</RA_OF_ASC_NODE><ARG_OF_PERICENTER>349.9084</ARG_OF_PERICENTER><MEAN_ANOMALY>10.1731</MEAN_ANOMALY></meanElements><tleParameters><EPHEMERIS_TYPE>0</EPHEMERIS_TYPE><CLASSIFICATION_TYPE>U</CLASSIFICATION_TYPE><NORAD_CAT_ID>65961</NORAD_CAT_ID><ELEMENT_SET_NO>999</ELEMENT_SET_NO><REV_AT_EPOCH>1018</REV_AT_EPOCH><BSTAR>.22771971E-2</BSTAR><MEAN_MOTION_DOT>.64649E-3</MEAN_MOTION_DOT><MEAN_MOTION_DDOT>0</MEAN_MOTION_DDOT></tleParameters></data></segment></body></omm>

</ndm>
